#cP2017 10 28  0  0  0.00000000      96 ORBIT IGS14 HLM  IGS
## 1972 518400.00000000   900.00000000 58054 0.0000000000000
+   32   G01G02G03G04G05G06G07G08G09G10G11G12G13G14G15G16G17
+        G18G19G20G21G22G23G24G25G26G27G28G29G30G31G32  0  0
+          0  0  0  0  0  0  0  0  0  0  0  0  0  0  0  0  0
+          0  0  0  0  0  0  0  0  0  0  0  0  0  0  0  0  0
+          0  0  0  0  0  0  0  0  0  0  0  0  0  0  0  0  0
++         2  2  2  0  3  2  2  2  2  2  2  2  2  2  2  2  2
++         2  2  2  2  2  2  2  2  2  2  2  2  2  3  2  0  0
++         0  0  0  0  0  0  0  0  0  0  0  0  0  0  0  0  0
++         0  0  0  0  0  0  0  0  0  0  0  0  0  0  0  0  0
++         0  0  0  0  0  0  0  0  0  0  0  0  0  0  0  0  0
%c G  cc GPS ccc cccc cccc cccc cccc ccccc ccccc ccccc ccccc
%c cc cc ccc ccc cccc cccc cccc cccc ccccc ccccc ccccc ccccc
%f  1.2500000  1.025000000  0.00000000000  0.000000000000000
%f  0.0000000  0.000000000  0.00000000000  0.000000000000000
%i    0    0    0    0      0      0      0      0         0
%i    0    0    0    0      0      0      0      0         0
/* RAPID ORBIT COMBINATION FROM WEIGHTED AVERAGE OF:        
/* cod emr esa gfz jpl ngs sio usn whu                      
/* REFERENCED TO IGS TIME (IGST) AND TO WEIGHTED MEAN POLE: 
/* PCV:IGS14_1972 OL/AL:FES2004  NONE     Y  ORB:CMB CLK:CMB
*  2017 10 28 22 30  0.00000000
PG01 -14043.208220   5955.883146  21581.987004     -6.937846  7     7 114       
PG02  14095.198440  17596.366926 -13751.179130    294.871578 11  8  9 115       
PG03 -22402.172860  12588.881656   6605.041876    -49.830340  8  9  9 133       
PG04 -20430.153035 -13496.292718 -11114.096400 999999.999999
PG05  16815.838125   4666.829741 -20175.015953    -24.511661  8  3  4  85       
PG06   7165.467277  25266.054260  -3925.620617    407.088782  6  1  7  98       
PG07  -7221.770001  20590.847167 -14627.792548    287.043712  6  6  7 109       
PG08 -25541.855152  -4958.712682   5670.152929    -78.641339  4  7  7 125       
PG09 -12168.893037  11306.979471 -20757.726165    464.291027  4  4  7 120       
PG10   4171.273217 -19476.067319  17528.038992     99.064638  5  4  5 114       
PG11 -17311.660457   1606.394549  19487.575957   -723.690807  8  4  8 121       
PG12  22892.445636  -8819.733223   9762.912147    367.196578  8  3  3 131       
PG13  23552.278863  12248.866149   -349.687341    -93.318163  8  5  6  93       
PG14 -13677.432701 -17632.286622  14808.978365    -87.309799  8  8  6 130       
PG15  25654.287481   1667.168673   7231.328616   -356.901340  8  5  4 118       
PG16 -16509.769249  -4852.963274 -20480.400398     36.719245  9  7  6  81       
PG17   4644.930697  16821.707469  20440.362168   -148.097447  7  4  4  97       
PG18  12665.785816 -21440.635900   9564.567146    631.992573  7  6  6 114       
PG19  12647.390433  17404.274055  15146.051146   -478.703722  7  7  8 114       
PG20  21839.456921 -10577.441951 -10918.844682    491.117700  8  7  3 112       
PG21   3674.424593 -23137.642350 -11655.421736   -467.118613  8  7  7 113       
PG22 -22084.744442   6451.432357  13535.724714   -170.457267  8  7  7  93       
PG23 -21577.351557   3857.904579 -15033.428686   -218.395813  8  8  7 117       
PG24  15250.944660  -2998.265328  21446.252135    -41.499574  6  2  4 105       
PG25  19626.574244 -17653.548827  -1649.969941   -480.380196  6  5  6 130       
PG26  -7883.514130 -13263.327032 -21604.549717   -381.532681  9  5  5  61       
PG27 -22747.725699 -12604.733544  -6013.273647    342.142640  9  2  8 139       
PG28  -8785.226973  19414.987740  16496.227258    657.901364  6  1  4 118       
PG29  16824.509396  -6769.086267 -19409.114298    545.316719  5  6  8 116       
PG30   -903.677610  25922.768780  -5331.056452    131.732294  6  3  7 129       
PG31  -8054.500990 -24156.664705  -6692.341118    165.792433  8  8 10 133       
PG32  -7867.100861 -16967.078151  18906.181661   -518.164254  7  3  3 128       
*  2017 10 28 22 45  0.00000000
PG01 -14564.072554   3499.937090  21796.816465     -6.939863  7  1  7 121       
PG02  14252.856516  19117.834670 -11481.996194    294.863205 11  7  9 111       
PG03 -21881.770291  11801.980964   9264.299907    -49.825727  8 10  9 135       
PG04 -19061.524541 -13365.777703 -13443.778497 999999.999999
PG05  15150.175213   6307.888441 -21016.054097    -24.510292  7  5  5  96       
PG06   6996.505141  25595.373777  -1072.953317    407.090575  6  1  8  93       
PG07  -7760.346707  18822.553077 -16614.397983    287.039096  6  6  7  93       
PG08 -25931.977074  -5315.698206   2861.052402    -78.642875  5  7  7 116       
PG09 -14344.171243  10511.374143 -19762.201878    464.295620  3  4  8 118       
PG10   5703.755517 -20614.359530  15683.843523     99.072109  5  4  5 106       
PG11 -18492.552076   -381.205338  18457.038405   -723.692501  8  5  8 121       
PG12  21985.156081  -7891.176832  12291.982684    367.195180  8  2  4 136       
PG13  23280.837851  12377.292753  -3214.471692    -93.320347  8  5  6  92       
PG14 -11997.398303 -17098.516054  16781.874356    -87.310449  7  8  6 131       
PG15  26253.022394   2130.500561   4570.882846   -356.901426  9  4  5 114       
PG16 -14654.159839  -6304.199768 -21444.612813     36.719192  9  7  7  79       
PG17   2470.399575  16038.757285  21428.906151   -148.095081  7  5  5  86       
PG18  13528.354970 -21827.321918   6989.254523    631.992677  6  6  6 120       
PG19  10849.024839  16780.560575  17103.219029   -478.701996  7  7  8 110       
PG20  21125.482061  -9376.171517 -13214.718153    491.119203  8  7  3 124       
PG21   4325.585389 -21667.335586 -13899.492522   -467.115625  9  7  7 126       
PG22 -21096.163686   5122.435587  15561.713407   -170.468734  8  8  6  83       
PG23 -23063.036442   3162.491385 -12912.931947   -218.396059  9  8  7 107       
PG24  15825.131693   -598.740750  21255.091027    -41.500902  7  2  4 110       
PG25  19782.703811 -17486.077604   1248.874718   -480.385852  6  5  5 129       
PG26  -6044.779604 -14881.267036 -21129.326425   -381.521126  9  6  6  81       
PG27 -21903.035555 -12519.450249  -8720.833489    342.146188  9  3  8 131       
PG28 -10181.312203  20320.116368  14387.632176    657.904190  6  1  4 117       
PG29  18761.045259  -5885.690831 -17858.104326    545.312426  4  5  8 115       
PG30  -1306.216854  25203.859280  -8025.474796    131.730127  6  4  7 131       
PG31  -7897.299274 -24812.964165  -3890.428169    165.790239  8  8 10 133       
PG32  -5712.150895 -16386.595571  20147.356809   -518.167781  7  3  3 124       
*  2017 10 28 23  0  0.00000000
PG01 -15214.272714   1074.925969  21631.793959     -6.941881  8  1  7 126       
PG02  14405.776105  20368.246211  -9013.054221    294.854257 11  7  9 117       
PG03 -21195.941228  10782.550252  11763.596485    -49.821123  8 10  9 139       
PG04 -17443.071271 -13266.969578 -15550.313994 999999.999999
PG05  13516.421615   8085.515928 -21499.679708    -24.509162  7  6  6 112       
PG06   6760.287765  25620.151807   1798.192979    407.092385  6  2  8 113       
PG07  -8438.137515  16880.338877 -18305.824374    287.034424  6  7  7  91       
PG08 -26030.387943  -5572.505022      3.071977    -78.644228  6  7  8 125       
PG09 -16429.805461   9860.452952 -18427.586658    464.300273  2  5  9 107       
PG10   7017.772264 -21671.734476  13568.612911     99.079710  5  3  4 119       
PG11 -19669.183125  -2208.621393  17092.991997   -723.694008  9  5  7 127       
PG12  20923.923776  -6728.663841  14605.521032    367.193583  9  3  4 138       
PG13  22718.392588  12400.521098  -6023.950049    -93.320766  8  6  7  95       
PG14 -10098.881748 -16586.530628  18473.459908    -87.311192  7  8  6 132       
PG15  26576.149892   2506.417379   1833.254370   -356.901740  9  5  5 131       
PG16 -12815.348755  -7918.764035 -22046.693545     36.719080  9  7  7  95       
PG17    168.866214  15352.407635  22061.703826   -148.093059  6  6  5 112       
PG18  14178.396572 -22033.466278   4294.422886    631.993147  6  6  6 130       
PG19   8824.582070  16182.596834  18757.345158   -478.700324  7  7  8 123       
PG20  20313.364436  -7954.521262 -15284.799586    491.120461  8  7  3 132       
PG21   5123.530136 -19992.275389 -15891.569041   -467.112808 10  8  7  98       
PG22 -20028.767915   3593.557179  17324.392518   -170.480357  8  8  6 102       
PG23 -24335.409093   2607.801407 -10571.674844   -218.396181  9  8  7 108       
PG24  16503.616803   1726.279033  20695.957208    -41.499971  7  4  4 123       
PG25  19714.849742 -17093.930272   4125.895375   -480.391527  7  6  5 131       
PG26  -4342.983579 -16539.000984 -20289.761512   -381.509600  9  6  7  89       
PG27 -20767.661941 -12405.631925 -11280.527340    342.149723  9  4  8 138       
PG28 -11338.666717  21143.400832  12040.689386    657.906972  6  2  4 123       
PG29  20560.095292  -5171.747141 -15999.844602    545.307904  4  5  9 118       
PG30  -1803.951545  24214.429388 -10580.558800    131.727881  7  5  7 129       
PG31  -7700.323964 -25160.327449  -1019.775123    165.787689  9  8 11 139       
PG32  -3412.784704 -15888.016734  21043.036615   -518.171299  7  3  3 118       
EOF
